0 FENGYUN 1C DEB
1 31225U 99025BLF 13281.44338204  .00001161  00000-0  76702-3 0  6060
2 31225 099.0910 257.0494 0105465 152.6871 334.2548 14.00967700332882
0 FENGYUN 1C DEB
1 31225U 99025BLF 13282.44417185  .00001264  00000-0  83264-3 0  6073
2 31225 099.0908 258.0458 0105555 149.9160 341.7296 14.00973958333022
0 FENGYUN 1C DEB
1 31225U 99025BLF 13284.15817186  .00001328  00000-0  87280-3 0  6082
2 31225 099.0903 259.7525 0105718 145.1461 346.3389 14.00977065333266
0 FENGYUN 1C DEB
1 31225U 99025BLF 13285.64333341  .00001237  00000-0  81489-3 0  6098
2 31225 099.0898 261.2314 0105896 141.0141 276.8160 14.00980644333474
0 FENGYUN 1C DEB
1 31225U 99025BLF 13287.15722747  .00001313  00000-0  86261-3 0  6108
2 31225 099.0900 262.7381 0106044 136.8030 352.2255 14.00984367333686
0 FENGYUN 1C DEB
1 31225U 99025BLF 13288.64307420  .00001561  00000-0  10204-2 0  6119
2 31225 099.0902 264.2168 0106153 132.6891 286.1845 14.00990293333896
0 FENGYUN 1C DEB
1 31225U 99025BLF 13290.15672524  .00001440  00000-0  94290-3 0  6123
2 31225 099.0906 265.7232 0106301 128.4900 000.4095 14.00995441334106
0 FENGYUN 1C DEB
1 31225U 99025BLF 13291.44218670  .00001465  00000-0  95892-3 0  6131
2 31225 099.0908 267.0025 0106422 124.9295 003.7596 14.00999357334286
0 FENGYUN 1C DEB
1 31225U 99025BLF 13292.57384833  .00001670  00000-0  10891-2 0  6145
2 31225 099.0910 268.1287 0106525 121.7891 311.4291 14.01002008334440
0 FENGYUN 1C DEB
1 31225U 99025BLF 13293.64231731  .00001729  00000-0  11263-2 0  6152
2 31225 099.0911 269.1923 0106629 118.8415 300.3716 14.01005258334598
0 FENGYUN 1C DEB
1 31225U 99025BLF 13294.64378078  .00001822  00000-0  11851-2 0  6167
2 31225 099.0912 270.1893 0106747 116.0771 311.3774 14.01009439334730
